CCSDS_OEM_VERS = 1.0
CREATION_DATE  = 2017-05-11T11:55:38
ORIGINATOR     = GMAT USER

META_START
OBJECT_NAME          = MOPSSat_alt_35785_km_RAAN_270_061
OBJECT_ID            = SatId
CENTER_NAME          = Earth
REF_FRAME            = EME2000
TIME_SYSTEM          = UTC
START_TIME           = 2017-01-01T00:00:00.000
USEABLE_START_TIME   = 2017-01-01T00:00:00.000
USEABLE_STOP_TIME    = 2017-01-02T00:00:00.000
STOP_TIME            = 2017-01-02T00:00:00.000
INTERPOLATION        = Lagrange
INTERPOLATION_DEGREE = 7 
META_STOP


                                                                                   

2017-01-01T21:14:10.000  -2.741635982430700e+04  -3.202765963439861e+04  -2.368546586236200e+02   2.335827168233237e+00  -1.999608749284393e+00   2.035762423507870e-02
2017-01-01T21:14:20.000  -2.739299426335073e+04  -3.204764720157731e+04  -2.366510194408252e+02   2.337284902397219e+00  -1.997904583254933e+00   2.037021126801677e-02
2017-01-01T21:14:30.000  -2.736961413129384e+04  -3.206761772175887e+04  -2.364472544422309e+02   2.338741393395019e+00  -1.996199354481861e+00   2.038278743890889e-02
2017-01-01T21:14:40.000  -2.734621944032325e+04  -3.208757118453404e+04  -2.362433637343242e+02   2.340196640467404e+00  -1.994493063854038e+00   2.039535274119899e-02
2017-01-01T21:14:50.000  -2.732281020286911e+04  -3.210750757929844e+04  -2.360393474257114e+02   2.341650642840899e+00  -1.992785712278065e+00   2.040790716820818e-02
2017-01-01T21:15:00.000  -2.729938643138203e+04  -3.212742689544677e+04  -2.358352056251766e+02   2.343103399741972e+00  -1.991077300662029e+00   2.042045071325705e-02
2017-01-01T21:15:10.000  -2.727594813833211e+04  -3.214732912237191e+04  -2.356309384416733e+02   2.344554910396953e+00  -1.989367829915449e+00   2.043298336966520e-02
2017-01-01T21:15:20.000  -2.725249533643639e+04  -3.216721424927588e+04  -2.354265459863059e+02   2.346005174018249e+00  -1.987657300965846e+00   2.044550513063200e-02
2017-01-01T21:15:30.000  -2.722902803835333e+04  -3.218708226542532e+04  -2.352220283696685e+02   2.347454189822986e+00  -1.985945714736475e+00   2.045801598939770e-02
2017-01-01T21:15:40.000  -2.720554625680525e+04  -3.220693316004873e+04  -2.350173857029101e+02   2.348901957025503e+00  -1.984233072155241e+00   2.047051593917854e-02
2017-01-01T21:15:50.000  -2.718205000403949e+04  -3.222676692279195e+04  -2.348126180930404e+02   2.350348474870581e+00  -1.982519374115417e+00   2.048300497345367e-02
2017-01-01T21:16:00.000  -2.715853929236847e+04  -3.224658354326125e+04  -2.346077256476353e+02   2.351793742600114e+00  -1.980804621515011e+00   2.049548308567743e-02
2017-01-01T21:16:10.000  -2.713501413403036e+04  -3.226638301114162e+04  -2.344027084736232e+02   2.353237759461731e+00  -1.979088815246625e+00   2.050795026935374e-02
2017-01-01T21:16:20.000  -2.711147454156312e+04  -3.228616531587850e+04  -2.341975666805444e+02   2.354680524685598e+00  -1.977371956224722e+00   2.052040651783581e-02
2017-01-01T21:16:30.000  -2.708792052749612e+04  -3.230593044694074e+04  -2.339923003778638e+02   2.356122037503584e+00  -1.975654045363138e+00   2.053285182449159e-02
2017-01-01T21:16:40.000  -2.706435210442118e+04  -3.232567839375983e+04  -2.337869096755898e+02   2.357562297144834e+00  -1.973935083580266e+00   2.054528618266567e-02
2017-01-01T21:16:50.000  -2.704076928496584e+04  -3.234540914575449e+04  -2.335813946840417e+02   2.359001302837561e+00  -1.972215071797103e+00   2.055770958569464e-02
2017-01-01T21:17:00.000  -2.701717208177937e+04  -3.236512269234070e+04  -2.333757555137273e+02   2.360439053809780e+00  -1.970494010936232e+00   2.057012202691345e-02
2017-01-01T21:17:10.000  -2.699356050750454e+04  -3.238481902295534e+04  -2.331699922750970e+02   2.361875549291028e+00  -1.968771901919760e+00   2.058252349967030e-02
2017-01-01T21:17:20.000  -2.696993457476518e+04  -3.240449812706823e+04  -2.329641050784359e+02   2.363310788513244e+00  -1.967048745668416e+00   2.059491399733422e-02
2017-01-01T21:17:30.000  -2.694629429613741e+04  -3.242415999420405e+04  -2.327580940336127e+02   2.364744770712369e+00  -1.965324543099447e+00   2.060729351330878e-02
2017-01-01T21:17:40.000  -2.692263968422184e+04  -3.244380461388314e+04  -2.325519592507082e+02   2.366177495124028e+00  -1.963599295131886e+00   2.061966204099499e-02
2017-01-01T21:17:50.000  -2.689897075133049e+04  -3.246343197587863e+04  -2.323457008372884e+02   2.367608961002282e+00  -1.961873002663716e+00   2.063201957395308e-02
2017-01-01T21:18:00.000  -2.687528750986579e+04  -3.248304206990451e+04  -2.321393189017070e+02   2.369039167596878e+00  -1.960145666599522e+00   2.064436610570608e-02
2017-01-01T21:18:10.000  -2.685158997217760e+04  -3.250263488573372e+04  -2.319328135518576e+02   2.370468114161859e+00  -1.958417287840045e+00   2.065670162981424e-02
2017-01-01T21:18:20.000  -2.682787815111703e+04  -3.252221041273982e+04  -2.317261849000023e+02   2.371895799922150e+00  -1.956687867322591e+00   2.066902613958646e-02
2017-01-01T21:18:30.000  -2.680415205948264e+04  -3.254176864035551e+04  -2.315194330579442e+02   2.373322224106979e+00  -1.954957405980632e+00   2.068133962836890e-02
2017-01-01T21:18:40.000  -2.678041171016324e+04  -3.256130955795413e+04  -2.313125581382727e+02   2.374747385941248e+00  -1.953225904754222e+00   2.069364208947043e-02
2017-01-01T21:18:50.000  -2.675665711576047e+04  -3.258083315516355e+04  -2.311055602510733e+02   2.376171284668422e+00  -1.951493364562469e+00   2.070593351636034e-02
2017-01-01T21:19:00.000  -2.673288828889993e+04  -3.260033942160683e+04  -2.308984395066403e+02   2.377593919531619e+00  -1.949759786326231e+00   2.071821390250486e-02
2017-01-01T21:19:10.000  -2.670910524215952e+04  -3.261982834696212e+04  -2.306911960148519e+02   2.379015289777967e+00  -1.948025170962888e+00   2.073048324140506e-02
2017-01-01T21:19:20.000  -2.668530798809644e+04  -3.263929992093836e+04  -2.304838298854044e+02   2.380435394656846e+00  -1.946289519388305e+00   2.074274152658146e-02
2017-01-01T21:19:30.000  -2.666149653926121e+04  -3.265875413326547e+04  -2.302763412279359e+02   2.381854233419167e+00  -1.944552832517863e+00   2.075498875156782e-02
2017-01-01T21:19:40.000  -2.663767090822620e+04  -3.267819097367105e+04  -2.300687301522744e+02   2.383271805315664e+00  -1.942815111268541e+00   2.076722490989655e-02
2017-01-01T21:19:50.000  -2.661383110759814e+04  -3.269761043186842e+04  -2.298609967685467e+02   2.384688109596035e+00  -1.941076356559817e+00   2.077944999509114e-02
2017-01-01T21:20:00.000  -2.658997715004718e+04  -3.271701249753506e+04  -2.296531411874313e+02   2.386103145507362e+00  -1.939336569315801e+00   2.079166400065258e-02
2017-01-01T21:20:10.000  -2.656610904823399e+04  -3.273639716037102e+04  -2.294451635195237e+02   2.387516912298374e+00  -1.937595750459905e+00   2.080386692009618e-02
2017-01-01T21:20:20.000  -2.654222681512562e+04  -3.275576440984520e+04  -2.292370638780886e+02   2.388929409200944e+00  -1.935853900937891e+00   2.081605874679182e-02
2017-01-01T21:20:30.000  -2.651833046361307e+04  -3.277511423550325e+04  -2.290288423757267e+02   2.390340635452537e+00  -1.934111021689974e+00   2.082823947415776e-02
2017-01-01T21:20:40.000  -2.649442000665333e+04  -3.279444662685284e+04  -2.288204991256137e+02   2.391750590287852e+00  -1.932367113661182e+00   2.084040909558842e-02
2017-01-01T21:20:50.000  -2.647049545671946e+04  -3.281376157380860e+04  -2.286120342367081e+02   2.393159272971266e+00  -1.930622177761250e+00   2.085256760473451e-02
2017-01-01T21:21:00.000  -2.644655682634907e+04  -3.283305906624817e+04  -2.284034478185297e+02   2.394566682764458e+00  -1.928876214904615e+00   2.086471499522350e-02
2017-01-01T21:21:10.000  -2.642260412802019e+04  -3.285233909411313e+04  -2.281947399800786e+02   2.395972818933775e+00  -1.927129226001372e+00   2.087685126072321e-02
2017-01-01T21:21:20.000  -2.639863737445955e+04  -3.287160164715689e+04  -2.279859108325221e+02   2.397377680731834e+00  -1.925381211979760e+00   2.088897639478312e-02
2017-01-01T21:21:30.000  -2.637465657841435e+04  -3.289084671513259e+04  -2.277769604872043e+02   2.398781267411232e+00  -1.923632173769501e+00   2.090109039095254e-02
2017-01-01T21:21:40.000  -2.635066175265138e+04  -3.291007428779206e+04  -2.275678890556399e+02   2.400183578224477e+00  -1.921882112301752e+00   2.091319324278011e-02
2017-01-01T21:21:50.000  -2.632665291018962e+04  -3.292928435470331e+04  -2.273586966515400e+02   2.401584612410666e+00  -1.920131028526064e+00   2.092528494369881e-02
2017-01-01T21:22:00.000  -2.630263006398769e+04  -3.294847690549745e+04  -2.271493833880898e+02   2.402984369213495e+00  -1.918378923387586e+00   2.093736548718140e-02
2017-01-01T21:22:10.000  -2.627859322706680e+04  -3.296765192977093e+04  -2.269399493790182e+02   2.404382847874139e+00  -1.916625797836027e+00   2.094943486667896e-02
2017-01-01T21:22:20.000  -2.625454241196830e+04  -3.298680941751862e+04  -2.267303947338732e+02   2.405780047662824e+00  -1.914871652786103e+00   2.096149307589339e-02
2017-01-01T21:22:30.000  -2.623047763129592e+04  -3.300594935870068e+04  -2.265207195627457e+02   2.407175967847250e+00  -1.913116489157078e+00   2.097354010850484e-02
2017-01-01T21:22:40.000  -2.620639889759346e+04  -3.302507174334081e+04  -2.263109239752033e+02   2.408570607699745e+00  -1.911360307863845e+00   2.098557595823354e-02
2017-01-01T21:22:50.000  -2.618230622365469e+04  -3.304417656127621e+04  -2.261010080829916e+02   2.409963966479040e+00  -1.909603109839527e+00   2.099760061868236e-02
2017-01-01T21:23:00.000  -2.615819962229374e+04  -3.306326380234386e+04  -2.258909719980327e+02   2.411356043443848e+00  -1.907844896018736e+00   2.100961408345420e-02
2017-01-01T21:23:10.000  -2.613407910634444e+04  -3.308233345637965e+04  -2.256808158324195e+02   2.412746837852803e+00  -1.906085667337516e+00   2.102161634615125e-02
